[{"OBJECT_NAME":"STARLINK-6314","OBJECT_ID":"2023-065AM","EPOCH":"2026-03-09T22:00:01.999584","MEAN_MOTION":15.13773236,"ECCENTRICITY":0.00022538,"INCLINATION":43.0003,"RA_OF_ASC_NODE":195.7729,"ARG_OF_PERICENTER":268.1969,"MEAN_ANOMALY":54.0345,"EPHEMERIS_TYPE":0,"CLASSIFICATION_TYPE":"U","NORAD_CAT_ID":56538,"ELEMENT_SET_NO":999,"REV_AT_EPOCH":567,"BSTAR":0.0040185916,"MEAN_MOTION_DOT":0.00074338,"MEAN_MOTION_DDOT":0},{"OBJECT_NAME":"OBJECT C","OBJECT_ID":"2024-094C","EPOCH":"2026-03-09T23:40:22.800864","MEAN_MOTION":15.16350553,"ECCENTRICITY":0.0005615,"INCLINATION":97.3999,"RA_OF_ASC_NODE":142.6319,"ARG_OF_PERICENTER":209.4203,"MEAN_ANOMALY":150.6715,"EPHEMERIS_TYPE":0,"CLASSIFICATION_TYPE":"U","NORAD_CAT_ID":59807,"ELEMENT_SET_NO":999,"REV_AT_EPOCH":10012,"BSTAR":0.00045742528,"MEAN_MOTION_DOT":8.815e-5,"MEAN_MOTION_DDOT":0}]
